ONEWEB-0258             
1 48976U 21060K   24282.69300429 -.00000136  00000+0 -38810-3 0  9998
2 48976  87.9159 351.5912 0001742  96.5980 263.5349 13.16598642158474
ONEWEB-0259             
1 48977U 21060L   24282.76267943  .00000224  00000+0  55343-3 0  9996
2 48977  87.9159 351.5625 0002052  96.3480 263.7885 13.16597238158516
ONEWEB-0260             
1 48978U 21060M   24282.75396025  .00000142  00000+0  33700-3 0  9992
2 48978  87.9161 351.5937 0001782 117.9553 242.1758 13.16594849158498
ONEWEB-0261             
1 48979U 21060N   24282.72308720  .00000238  00000+0  59019-3 0  9992
2 48979  87.9161 351.5961 0002412 108.0940 252.0454 13.16597020158541
ONEWEB-0262             
1 48980U 21060P   24282.70410095  .00000046  00000+0  86636-4 0  9994
2 48980  87.9161 351.5607 0002238  94.6412 265.4975 13.16596333158508
ONEWEB-0263             
1 48981U 21060Q   24282.88775628  .00000260  00000+0  64523-3 0  9998
2 48981  87.9163 351.5444 0002357 101.5547 258.5849 13.16596694158490
ONEWEB-0264             
1 48982U 21060R   24282.69695493 -.00000264  00000+0 -72387-3 0  9992
2 48982  87.9162 351.5924 0001895  99.8486 260.2859 13.16593989158473
ONEWEB-0266             
1 48984U 21060T   24282.71833292  .00000270  00000+0  67159-3 0  9994
2 48984  87.9160 351.5633 0001815  95.7241 264.4097 13.16598469158463
